[{"OBJECT_NAME":"STARLINK-31379","OBJECT_ID":"2024-031V","EPOCH":"2026-03-09T20:23:14.907840","MEAN_MOTION":15.30194472,"ECCENTRICITY":0.00011219,"INCLINATION":53.1597,"RA_OF_ASC_NODE":296.2331,"ARG_OF_PERICENTER":89.7443,"MEAN_ANOMALY":270.3686,"EPHEMERIS_TYPE":0,"CLASSIFICATION_TYPE":"U","NORAD_CAT_ID":58984,"ELEMENT_SET_NO":999,"REV_AT_EPOCH":11653,"BSTAR":2.2182322e-5,"MEAN_MOTION_DOT":2.98e-6,"MEAN_MOTION_DDOT":0},{"OBJECT_NAME":"CZ-2C R\/B","OBJECT_ID":"2024-218A","EPOCH":"2026-03-09T22:16:31.791072","MEAN_MOTION":15.22960743,"ECCENTRICITY":0.00453409,"INCLINATION":97.5416,"RA_OF_ASC_NODE":83.973,"ARG_OF_PERICENTER":359.5317,"MEAN_ANOMALY":0.5869,"EPHEMERIS_TYPE":0,"CLASSIFICATION_TYPE":"U","NORAD_CAT_ID":62078,"ELEMENT_SET_NO":999,"REV_AT_EPOCH":7134,"BSTAR":0.00039378379,"MEAN_MOTION_DOT":9.445e-5,"MEAN_MOTION_DDOT":0}]
